{
    "links": {
        "self": "http://www.neowsapp.com/rest/v1/neo/3789372?api_key=iIulBulltgU6a56xZRHN4H3l9WmuAYTsLGpBGhQ2"
    },
    "id": "3789372",
    "neo_reference_id": "3789372",
    "name": "(2017 VA13)",
    "designation": "2017 VA13",
    "nasa_jpl_url": "http://ssd.jpl.nasa.gov/sbdb.cgi?sstr=3789372",
    "absolute_magnitude_h": 23.3,
    "estimated_diameter": {
        "kilometers": {
            "estimated_diameter_min": 0.058150704,
            "estimated_diameter_max": 0.130028927
        },
        "meters": {
            "estimated_diameter_min": 58.1507039646,
            "estimated_diameter_max": 130.0289270043
        },
        "miles": {
            "estimated_diameter_min": 0.0361331611,
            "estimated_diameter_max": 0.0807962044
        },
        "feet": {
            "estimated_diameter_min": 190.7831555951,
            "estimated_diameter_max": 426.6041048727
        }
    },
    "is_potentially_hazardous_asteroid": false,
    "close_approach_data": [
        {
            "close_approach_date": "2015-11-22",
            "close_approach_date_full": "2015-Nov-22 07:25",
            "epoch_date_close_approach": 1448177100000,
            "relative_velocity": {
                "kilometers_per_second": "20.1478522049",
                "kilometers_per_hour": "72532.2679376209",
                "miles_per_hour": "45068.730597129"
            },
            "miss_distance": {
                "astronomical": "0.4016453492",
                "lunar": "156.2400408388",
                "kilometers": "60085288.735726204",
                "miles": "37335267.1610374552"
            },
            "orbiting_body": "Earth"
        },
        {
            "close_approach_date": "2017-11-02",
            "close_approach_date_full": "2017-Nov-02 05:00",
            "epoch_date_close_approach": 1509598800000,
            "relative_velocity": {
                "kilometers_per_second": "11.8858496089",
                "kilometers_per_hour": "42789.0585920177",
                "miles_per_hour": "26587.4569901345"
            },
            "miss_distance": {
                "astronomical": "0.1132433013",
                "lunar": "44.0516442057",
                "kilometers": "16940956.666248231",
                "miles": "10526622.3464423478"
            },
            "orbiting_body": "Earth"
        }
    ],
    "orbital_data": {
        "orbit_id": "4",
        "orbit_determination_date": "2017-12-21 06:28:23",
        "first_observation_date": "2017-11-13",
        "last_observation_date": "2017-11-27",
        "data_arc_in_days": 14,
        "observations_used": 39,
        "orbit_uncertainty": "8",
        "minimum_orbit_intersection": ".0218747",
        "jupiter_tisserand_invariant": "4.321",
        "epoch_osculation": "2458072.5",
        "eccentricity": ".3950075662847762",
        "semi_major_axis": "1.563097120495107",
        "inclination": "9.794529537514887",
        "ascending_node_longitude": "20.21430248446048",
        "orbital_period": "713.801360573585",
        "perihelion_distance": ".9456619310615929",
        "perihelion_argument": "336.2217322878763",
        "aphelion_distance": "2.18053230992862",
        "perihelion_time": "2458028.904262753973",
        "mean_anomaly": "21.98716096023999",
        "mean_motion": ".5043419918823312",
        "equinox": "J2000",
        "orbit_class": {
            "orbit_class_type": "APO",
            "orbit_class_description": "Near-Earth asteroid orbits which cross the Earth’s orbit similar to that of 1862 Apollo",
            "orbit_class_range": "a (semi-major axis) > 1.0 AU; q (perihelion) < 1.017 AU"
        }
    },
    "is_sentry_object": false
}